[{"OBJECT_NAME":"GAOFEN-9 03","OBJECT_ID":"2020-039A","EPOCH":"2026-03-09T21:55:15.121344","MEAN_MOTION":15.30529116,"ECCENTRICITY":0.0013094,"INCLINATION":97.5219,"RA_OF_ASC_NODE":201.2158,"ARG_OF_PERICENTER":77.4533,"MEAN_ANOMALY":282.8172,"EPHEMERIS_TYPE":0,"CLASSIFICATION_TYPE":"U","NORAD_CAT_ID":45794,"ELEMENT_SET_NO":999,"REV_AT_EPOCH":31856,"BSTAR":0.00039258132,"MEAN_MOTION_DOT":0.00011544,"MEAN_MOTION_DDOT":0},{"OBJECT_NAME":"STARLINK-32931","OBJECT_ID":"2025-048S","EPOCH":"2026-03-09T10:28:03.068832","MEAN_MOTION":15.2757224,"ECCENTRICITY":0.00010473,"INCLINATION":43.0008,"RA_OF_ASC_NODE":86.7283,"ARG_OF_PERICENTER":248.1574,"MEAN_ANOMALY":111.9166,"EPHEMERIS_TYPE":0,"CLASSIFICATION_TYPE":"U","NORAD_CAT_ID":63199,"ELEMENT_SET_NO":999,"REV_AT_EPOCH":5705,"BSTAR":0.00073489359,"MEAN_MOTION_DOT":0.00020011,"MEAN_MOTION_DDOT":0}]
